<?xml version="1.0" encoding="UTF-8"?>
<gpx version="1.1" creator="Slovakia Travel Guide" xmlns="http://www.topografix.com/GPX/1/1">
<metadata><name>Tatranská Lomnica — Skalnaté pleso</name></metadata>
<trk><name>Cable car</name><trkseg><trkpt lat="49.1664923" lon="20.2703794"></trkpt><trkpt lat="49.1791112" lon="20.2559057"></trkpt><trkpt lat="49.188554" lon="20.2320891"></trkpt></trkseg></trk>
<trk><name>Skalnaté pleso walk — no colour marking</name><trkseg><trkpt lat="49.188554" lon="20.2320891"></trkpt><trkpt lat="49.18895" lon="20.23305"></trkpt><trkpt lat="49.18955" lon="20.23235"></trkpt><trkpt lat="49.18935" lon="20.23115"></trkpt><trkpt lat="49.18875" lon="20.23075"></trkpt><trkpt lat="49.188554" lon="20.2320891"></trkpt></trkseg></trk>
</gpx>
