<?xml version="1.0" encoding="UTF-8"?>
<gpx version="1.1" creator="Slovakia Travel Guide" xmlns="http://www.topografix.com/GPX/1/1">
<metadata><name>Hrebienok — waterfalls — Zamkovského chata</name></metadata>
<trk><name>Green: Hrebienok → waterfalls → Rainerova chata</name><trkseg><trkpt lat="49.158684" lon="20.224653"></trkpt><trkpt lat="49.158684" lon="20.224709"></trkpt><trkpt lat="49.158683" lon="20.224787"></trkpt><trkpt lat="49.158723" lon="20.224987"></trkpt><trkpt lat="49.158794" lon="20.225006"></trkpt><trkpt lat="49.158733" lon="20.225204"></trkpt><trkpt lat="49.158642" lon="20.225543"></trkpt><trkpt lat="49.158364" lon="20.22651"></trkpt><trkpt lat="49.158268" lon="20.226879"></trkpt><trkpt lat="49.158401" lon="20.226618"></trkpt><trkpt lat="49.158503" lon="20.226303"></trkpt><trkpt lat="49.158569" lon="20.226122"></trkpt><trkpt lat="49.158738" lon="20.225779"></trkpt><trkpt lat="49.158831" lon="20.225608"></trkpt><trkpt lat="49.15901" lon="20.225259"></trkpt><trkpt lat="49.159269" lon="20.224852"></trkpt><trkpt lat="49.159459" lon="20.224609"></trkpt><trkpt lat="49.159596" lon="20.224478"></trkpt><trkpt lat="49.159817" lon="20.22436"></trkpt><trkpt lat="49.16008" lon="20.224201"></trkpt><trkpt lat="49.160115" lon="20.224174"></trkpt><trkpt lat="49.160222" lon="20.224092"></trkpt><trkpt lat="49.160288" lon="20.224068"></trkpt><trkpt lat="49.160496" lon="20.223787"></trkpt><trkpt lat="49.160621" lon="20.223652"></trkpt><trkpt lat="49.160788" lon="20.223513"></trkpt><trkpt lat="49.160965" lon="20.22344"></trkpt><trkpt lat="49.16107" lon="20.223421"></trkpt><trkpt lat="49.16114" lon="20.223395"></trkpt><trkpt lat="49.161249" lon="20.223376"></trkpt><trkpt lat="49.161354" lon="20.223395"></trkpt><trkpt lat="49.161472" lon="20.223454"></trkpt><trkpt lat="49.161572" lon="20.223483"></trkpt><trkpt lat="49.161915" lon="20.223534"></trkpt><trkpt lat="49.162014" lon="20.223515"></trkpt><trkpt lat="49.162038" lon="20.223545"></trkpt><trkpt lat="49.161961" lon="20.223633"></trkpt><trkpt lat="49.161965" lon="20.223698"></trkpt><trkpt lat="49.162038" lon="20.223725"></trkpt><trkpt lat="49.162218" lon="20.223698"></trkpt><trkpt lat="49.162353" lon="20.223602"></trkpt><trkpt lat="49.162496" lon="20.223563"></trkpt><trkpt lat="49.162539" lon="20.223618"></trkpt><trkpt lat="49.162528" lon="20.223674"></trkpt><trkpt lat="49.162355" lon="20.223821"></trkpt><trkpt lat="49.162337" lon="20.22388"></trkpt><trkpt lat="49.162356" lon="20.223921"></trkpt><trkpt lat="49.162436" lon="20.22395"></trkpt><trkpt lat="49.162585" lon="20.223888"></trkpt><trkpt lat="49.162691" lon="20.223899"></trkpt><trkpt lat="49.162758" lon="20.223978"></trkpt><trkpt lat="49.162839" lon="20.224267"></trkpt><trkpt lat="49.162935" lon="20.224392"></trkpt><trkpt lat="49.163043" lon="20.2245"></trkpt><trkpt lat="49.163156" lon="20.224545"></trkpt><trkpt lat="49.163319" lon="20.224542"></trkpt><trkpt lat="49.163447" lon="20.22446"></trkpt><trkpt lat="49.163717" lon="20.224261"></trkpt><trkpt lat="49.163791" lon="20.224175"></trkpt><trkpt lat="49.163847" lon="20.224004"></trkpt><trkpt lat="49.16391" lon="20.223857"></trkpt><trkpt lat="49.164029" lon="20.223522"></trkpt><trkpt lat="49.164128" lon="20.223345"></trkpt><trkpt lat="49.164387" lon="20.223164"></trkpt><trkpt lat="49.164654" lon="20.222858"></trkpt><trkpt lat="49.164752" lon="20.222716"></trkpt><trkpt lat="49.164765" lon="20.222639"></trkpt><trkpt lat="49.164827" lon="20.222532"></trkpt><trkpt lat="49.164847" lon="20.22251"></trkpt><trkpt lat="49.164873" lon="20.222433"></trkpt><trkpt lat="49.164944" lon="20.222422"></trkpt><trkpt lat="49.165002" lon="20.222465"></trkpt><trkpt lat="49.165042" lon="20.222326"></trkpt><trkpt lat="49.165047" lon="20.222229"></trkpt><trkpt lat="49.165048" lon="20.222225"></trkpt><trkpt lat="49.165045" lon="20.222104"></trkpt><trkpt lat="49.165096" lon="20.222018"></trkpt><trkpt lat="49.165102" lon="20.221976"></trkpt><trkpt lat="49.165052" lon="20.22197"></trkpt><trkpt lat="49.164995" lon="20.222035"></trkpt><trkpt lat="49.164951" lon="20.222105"></trkpt><trkpt lat="49.16491" lon="20.222188"></trkpt><trkpt lat="49.164898" lon="20.222187"></trkpt><trkpt lat="49.164889" lon="20.222073"></trkpt><trkpt lat="49.164911" lon="20.221954"></trkpt><trkpt lat="49.164945" lon="20.221882"></trkpt><trkpt lat="49.164997" lon="20.221831"></trkpt><trkpt lat="49.165304" lon="20.221606"></trkpt><trkpt lat="49.165438" lon="20.221418"></trkpt><trkpt lat="49.165578" lon="20.221354"></trkpt><trkpt lat="49.165662" lon="20.221337"></trkpt><trkpt lat="49.165744" lon="20.221276"></trkpt><trkpt lat="49.165815" lon="20.221281"></trkpt><trkpt lat="49.165923" lon="20.221128"></trkpt><trkpt lat="49.165979" lon="20.221104"></trkpt><trkpt lat="49.166016" lon="20.221061"></trkpt><trkpt lat="49.165983" lon="20.22101"></trkpt><trkpt lat="49.165946" lon="20.221005"></trkpt><trkpt lat="49.165915" lon="20.220983"></trkpt><trkpt lat="49.165899" lon="20.220932"></trkpt><trkpt lat="49.165936" lon="20.220873"></trkpt><trkpt lat="49.166008" lon="20.220849"></trkpt><trkpt lat="49.166083" lon="20.220852"></trkpt><trkpt lat="49.16615" lon="20.220828"></trkpt><trkpt lat="49.166213" lon="20.22078"></trkpt><trkpt lat="49.166239" lon="20.220718"></trkpt><trkpt lat="49.16625" lon="20.220613"></trkpt><trkpt lat="49.166288" lon="20.220522"></trkpt><trkpt lat="49.166395" lon="20.220428"></trkpt><trkpt lat="49.166504" lon="20.220399"></trkpt><trkpt lat="49.166592" lon="20.220396"></trkpt><trkpt lat="49.166663" lon="20.220396"></trkpt><trkpt lat="49.166723" lon="20.220436"></trkpt><trkpt lat="49.166934" lon="20.22045"></trkpt><trkpt lat="49.167062" lon="20.220428"></trkpt><trkpt lat="49.16714" lon="20.220452"></trkpt><trkpt lat="49.167291" lon="20.220637"></trkpt><trkpt lat="49.167395" lon="20.220734"></trkpt><trkpt lat="49.167489" lon="20.220785"></trkpt><trkpt lat="49.167544" lon="20.220763"></trkpt><trkpt lat="49.167598" lon="20.220704"></trkpt><trkpt lat="49.167639" lon="20.220622"></trkpt><trkpt lat="49.167653" lon="20.220428"></trkpt><trkpt lat="49.167646" lon="20.220318"></trkpt><trkpt lat="49.167602" lon="20.220096"></trkpt><trkpt lat="49.167526" lon="20.219814"></trkpt><trkpt lat="49.167519" lon="20.219573"></trkpt><trkpt lat="49.1675" lon="20.219382"></trkpt><trkpt lat="49.167478" lon="20.219267"></trkpt><trkpt lat="49.16746" lon="20.219227"></trkpt><trkpt lat="49.167333" lon="20.219161"></trkpt><trkpt lat="49.16729" lon="20.219109"></trkpt><trkpt lat="49.16722" lon="20.218953"></trkpt><trkpt lat="49.166929" lon="20.21869"></trkpt></trkseg></trk>
<trk><name>Red: Rainerova → Zamkovského → Hrebienok</name><trkseg><trkpt lat="49.166929" lon="20.21869"></trkpt><trkpt lat="49.167018" lon="20.2185"></trkpt><trkpt lat="49.1671" lon="20.218429"></trkpt><trkpt lat="49.167186" lon="20.218297"></trkpt><trkpt lat="49.167227" lon="20.218273"></trkpt><trkpt lat="49.1674" lon="20.218084"></trkpt><trkpt lat="49.167488" lon="20.218"></trkpt><trkpt lat="49.167576" lon="20.217812"></trkpt><trkpt lat="49.167633" lon="20.217711"></trkpt><trkpt lat="49.167765" lon="20.217606"></trkpt><trkpt lat="49.167799" lon="20.217476"></trkpt><trkpt lat="49.167833" lon="20.217373"></trkpt><trkpt lat="49.167882" lon="20.217274"></trkpt><trkpt lat="49.167933" lon="20.217189"></trkpt><trkpt lat="49.168024" lon="20.21708"></trkpt><trkpt lat="49.168061" lon="20.217023"></trkpt><trkpt lat="49.16814" lon="20.216942"></trkpt><trkpt lat="49.168219" lon="20.216902"></trkpt><trkpt lat="49.168389" lon="20.216795"></trkpt><trkpt lat="49.168501" lon="20.216859"></trkpt><trkpt lat="49.168546" lon="20.216866"></trkpt><trkpt lat="49.168666" lon="20.21682"></trkpt><trkpt lat="49.16872" lon="20.216781"></trkpt><trkpt lat="49.168873" lon="20.216611"></trkpt><trkpt lat="49.16907" lon="20.216322"></trkpt><trkpt lat="49.169208" lon="20.216061"></trkpt><trkpt lat="49.169296" lon="20.215846"></trkpt><trkpt lat="49.169415" lon="20.215417"></trkpt><trkpt lat="49.169488" lon="20.215231"></trkpt><trkpt lat="49.169524" lon="20.215117"></trkpt><trkpt lat="49.169546" lon="20.215007"></trkpt><trkpt lat="49.169572" lon="20.214775"></trkpt><trkpt lat="49.169582" lon="20.214738"></trkpt><trkpt lat="49.169598" lon="20.214729"></trkpt><trkpt lat="49.169613" lon="20.214745"></trkpt><trkpt lat="49.169645" lon="20.214828"></trkpt><trkpt lat="49.169668" lon="20.214912"></trkpt><trkpt lat="49.169679" lon="20.214992"></trkpt><trkpt lat="49.169678" lon="20.215135"></trkpt><trkpt lat="49.169692" lon="20.215286"></trkpt><trkpt lat="49.169711" lon="20.215367"></trkpt><trkpt lat="49.169927" lon="20.215901"></trkpt><trkpt lat="49.170081" lon="20.216386"></trkpt><trkpt lat="49.170129" lon="20.216664"></trkpt><trkpt lat="49.170141" lon="20.216786"></trkpt><trkpt lat="49.170147" lon="20.216995"></trkpt><trkpt lat="49.17014" lon="20.217513"></trkpt><trkpt lat="49.17015" lon="20.217609"></trkpt><trkpt lat="49.170165" lon="20.217685"></trkpt><trkpt lat="49.170207" lon="20.217791"></trkpt><trkpt lat="49.170264" lon="20.217923"></trkpt><trkpt lat="49.170336" lon="20.218189"></trkpt><trkpt lat="49.170375" lon="20.218423"></trkpt><trkpt lat="49.170348" lon="20.218584"></trkpt><trkpt lat="49.170291" lon="20.218717"></trkpt><trkpt lat="49.170245" lon="20.218864"></trkpt><trkpt lat="49.170227" lon="20.218903"></trkpt><trkpt lat="49.170216" lon="20.218949"></trkpt><trkpt lat="49.170219" lon="20.218984"></trkpt><trkpt lat="49.170259" lon="20.219084"></trkpt><trkpt lat="49.170287" lon="20.219121"></trkpt><trkpt lat="49.170292" lon="20.219146"></trkpt><trkpt lat="49.170336" lon="20.219259"></trkpt><trkpt lat="49.170476" lon="20.219578"></trkpt><trkpt lat="49.170681" lon="20.219964"></trkpt><trkpt lat="49.170689" lon="20.220008"></trkpt><trkpt lat="49.170686" lon="20.220038"></trkpt><trkpt lat="49.170665" lon="20.220087"></trkpt><trkpt lat="49.170447" lon="20.220444"></trkpt><trkpt lat="49.170402" lon="20.220528"></trkpt><trkpt lat="49.170379" lon="20.220596"></trkpt><trkpt lat="49.170325" lon="20.22082"></trkpt><trkpt lat="49.170207" lon="20.221406"></trkpt><trkpt lat="49.170101" lon="20.222161"></trkpt><trkpt lat="49.170047" lon="20.222627"></trkpt><trkpt lat="49.169957" lon="20.223257"></trkpt><trkpt lat="49.169928" lon="20.223444"></trkpt><trkpt lat="49.169809" lon="20.224067"></trkpt><trkpt lat="49.169802" lon="20.224131"></trkpt><trkpt lat="49.169804" lon="20.224163"></trkpt><trkpt lat="49.169825" lon="20.224175"></trkpt><trkpt lat="49.169871" lon="20.224112"></trkpt><trkpt lat="49.169913" lon="20.223955"></trkpt><trkpt lat="49.169963" lon="20.223805"></trkpt><trkpt lat="49.170053" lon="20.223604"></trkpt><trkpt lat="49.170215" lon="20.223212"></trkpt><trkpt lat="49.170695" lon="20.222112"></trkpt><trkpt lat="49.170805" lon="20.22187"></trkpt><trkpt lat="49.170935" lon="20.221668"></trkpt><trkpt lat="49.171084" lon="20.221557"></trkpt><trkpt lat="49.171123" lon="20.22149"></trkpt><trkpt lat="49.171364" lon="20.221203"></trkpt><trkpt lat="49.171449" lon="20.221121"></trkpt><trkpt lat="49.171488" lon="20.221104"></trkpt><trkpt lat="49.171645" lon="20.221087"></trkpt><trkpt lat="49.171724" lon="20.221089"></trkpt><trkpt lat="49.172085" lon="20.221192"></trkpt><trkpt lat="49.172197" lon="20.221201"></trkpt><trkpt lat="49.172382" lon="20.221186"></trkpt><trkpt lat="49.17244" lon="20.221166"></trkpt><trkpt lat="49.172482" lon="20.221141"></trkpt><trkpt lat="49.172524" lon="20.22109"></trkpt><trkpt lat="49.172551" lon="20.221041"></trkpt><trkpt lat="49.172563" lon="20.220992"></trkpt><trkpt lat="49.172566" lon="20.220816"></trkpt><trkpt lat="49.1726" lon="20.220656"></trkpt><trkpt lat="49.172607" lon="20.220577"></trkpt><trkpt lat="49.172606" lon="20.220506"></trkpt><trkpt lat="49.172595" lon="20.220443"></trkpt><trkpt lat="49.172557" lon="20.220367"></trkpt><trkpt lat="49.172461" lon="20.220269"></trkpt><trkpt lat="49.172429" lon="20.220218"></trkpt><trkpt lat="49.172414" lon="20.220168"></trkpt><trkpt lat="49.172416" lon="20.220115"></trkpt><trkpt lat="49.172429" lon="20.220061"></trkpt><trkpt lat="49.172475" lon="20.219979"></trkpt><trkpt lat="49.17251" lon="20.219915"></trkpt><trkpt lat="49.17272" lon="20.219591"></trkpt><trkpt lat="49.172797" lon="20.2195"></trkpt><trkpt lat="49.172863" lon="20.219439"></trkpt><trkpt lat="49.172886" lon="20.219426"></trkpt><trkpt lat="49.172926" lon="20.21943"></trkpt><trkpt lat="49.173021" lon="20.219484"></trkpt><trkpt lat="49.173128" lon="20.219499"></trkpt><trkpt lat="49.173371" lon="20.219458"></trkpt><trkpt lat="49.173405" lon="20.219463"></trkpt><trkpt lat="49.173518" lon="20.21944"></trkpt><trkpt lat="49.173574" lon="20.219407"></trkpt><trkpt lat="49.173773" lon="20.219311"></trkpt><trkpt lat="49.17392" lon="20.219275"></trkpt><trkpt lat="49.173962" lon="20.219366"></trkpt><trkpt lat="49.173939" lon="20.21947"></trkpt><trkpt lat="49.174046" lon="20.219554"></trkpt><trkpt lat="49.173939" lon="20.21947"></trkpt><trkpt lat="49.173962" lon="20.219366"></trkpt><trkpt lat="49.17392" lon="20.219275"></trkpt><trkpt lat="49.173773" lon="20.219311"></trkpt><trkpt lat="49.173574" lon="20.219407"></trkpt><trkpt lat="49.173518" lon="20.21944"></trkpt><trkpt lat="49.173405" lon="20.219463"></trkpt><trkpt lat="49.173371" lon="20.219458"></trkpt><trkpt lat="49.173128" lon="20.219499"></trkpt><trkpt lat="49.173021" lon="20.219484"></trkpt><trkpt lat="49.172926" lon="20.21943"></trkpt><trkpt lat="49.172886" lon="20.219426"></trkpt><trkpt lat="49.172863" lon="20.219439"></trkpt><trkpt lat="49.172797" lon="20.2195"></trkpt><trkpt lat="49.17272" lon="20.219591"></trkpt><trkpt lat="49.17251" lon="20.219915"></trkpt><trkpt lat="49.172475" lon="20.219979"></trkpt><trkpt lat="49.172429" lon="20.220061"></trkpt><trkpt lat="49.172416" lon="20.220115"></trkpt><trkpt lat="49.172414" lon="20.220168"></trkpt><trkpt lat="49.172429" lon="20.220218"></trkpt><trkpt lat="49.172461" lon="20.220269"></trkpt><trkpt lat="49.172557" lon="20.220367"></trkpt><trkpt lat="49.172595" lon="20.220443"></trkpt><trkpt lat="49.172606" lon="20.220506"></trkpt><trkpt lat="49.172607" lon="20.220577"></trkpt><trkpt lat="49.1726" lon="20.220656"></trkpt><trkpt lat="49.172566" lon="20.220816"></trkpt><trkpt lat="49.172563" lon="20.220992"></trkpt><trkpt lat="49.172551" lon="20.221041"></trkpt><trkpt lat="49.172524" lon="20.22109"></trkpt><trkpt lat="49.172482" lon="20.221141"></trkpt><trkpt lat="49.17244" lon="20.221166"></trkpt><trkpt lat="49.172382" lon="20.221186"></trkpt><trkpt lat="49.172197" lon="20.221201"></trkpt><trkpt lat="49.172085" lon="20.221192"></trkpt><trkpt lat="49.171724" lon="20.221089"></trkpt><trkpt lat="49.171645" lon="20.221087"></trkpt><trkpt lat="49.171488" lon="20.221104"></trkpt><trkpt lat="49.171449" lon="20.221121"></trkpt><trkpt lat="49.171364" lon="20.221203"></trkpt><trkpt lat="49.171123" lon="20.22149"></trkpt><trkpt lat="49.171084" lon="20.221557"></trkpt><trkpt lat="49.170935" lon="20.221668"></trkpt><trkpt lat="49.170805" lon="20.22187"></trkpt><trkpt lat="49.170695" lon="20.222112"></trkpt><trkpt lat="49.170215" lon="20.223212"></trkpt><trkpt lat="49.170053" lon="20.223604"></trkpt><trkpt lat="49.169963" lon="20.223805"></trkpt><trkpt lat="49.169913" lon="20.223955"></trkpt><trkpt lat="49.169871" lon="20.224112"></trkpt><trkpt lat="49.169825" lon="20.224175"></trkpt><trkpt lat="49.169804" lon="20.224163"></trkpt><trkpt lat="49.169802" lon="20.224131"></trkpt><trkpt lat="49.169809" lon="20.224067"></trkpt><trkpt lat="49.169928" lon="20.223444"></trkpt><trkpt lat="49.169957" lon="20.223257"></trkpt><trkpt lat="49.170047" lon="20.222627"></trkpt><trkpt lat="49.170101" lon="20.222161"></trkpt><trkpt lat="49.170207" lon="20.221406"></trkpt><trkpt lat="49.170325" lon="20.22082"></trkpt><trkpt lat="49.170379" lon="20.220596"></trkpt><trkpt lat="49.170402" lon="20.220528"></trkpt><trkpt lat="49.170447" lon="20.220444"></trkpt><trkpt lat="49.170665" lon="20.220087"></trkpt><trkpt lat="49.170686" lon="20.220038"></trkpt><trkpt lat="49.170689" lon="20.220008"></trkpt><trkpt lat="49.170681" lon="20.219964"></trkpt><trkpt lat="49.170476" lon="20.219578"></trkpt><trkpt lat="49.170336" lon="20.219259"></trkpt><trkpt lat="49.170292" lon="20.219146"></trkpt><trkpt lat="49.170287" lon="20.219121"></trkpt><trkpt lat="49.170259" lon="20.219084"></trkpt><trkpt lat="49.170219" lon="20.218984"></trkpt><trkpt lat="49.170216" lon="20.218949"></trkpt><trkpt lat="49.170227" lon="20.218903"></trkpt><trkpt lat="49.170245" lon="20.218864"></trkpt><trkpt lat="49.170291" lon="20.218717"></trkpt><trkpt lat="49.170348" lon="20.218584"></trkpt><trkpt lat="49.170375" lon="20.218423"></trkpt><trkpt lat="49.170336" lon="20.218189"></trkpt><trkpt lat="49.170264" lon="20.217923"></trkpt><trkpt lat="49.170207" lon="20.217791"></trkpt><trkpt lat="49.170165" lon="20.217685"></trkpt><trkpt lat="49.17015" lon="20.217609"></trkpt><trkpt lat="49.17014" lon="20.217513"></trkpt><trkpt lat="49.170147" lon="20.216995"></trkpt><trkpt lat="49.170141" lon="20.216786"></trkpt><trkpt lat="49.170129" lon="20.216664"></trkpt><trkpt lat="49.170081" lon="20.216386"></trkpt><trkpt lat="49.169927" lon="20.215901"></trkpt><trkpt lat="49.169711" lon="20.215367"></trkpt><trkpt lat="49.169692" lon="20.215286"></trkpt><trkpt lat="49.169678" lon="20.215135"></trkpt><trkpt lat="49.169679" lon="20.214992"></trkpt><trkpt lat="49.169668" lon="20.214912"></trkpt><trkpt lat="49.169645" lon="20.214828"></trkpt><trkpt lat="49.169613" lon="20.214745"></trkpt><trkpt lat="49.169598" lon="20.214729"></trkpt><trkpt lat="49.169582" lon="20.214738"></trkpt><trkpt lat="49.169572" lon="20.214775"></trkpt><trkpt lat="49.169546" lon="20.215007"></trkpt><trkpt lat="49.169524" lon="20.215117"></trkpt><trkpt lat="49.169488" lon="20.215231"></trkpt><trkpt lat="49.169415" lon="20.215417"></trkpt><trkpt lat="49.169296" lon="20.215846"></trkpt><trkpt lat="49.169208" lon="20.216061"></trkpt><trkpt lat="49.16907" lon="20.216322"></trkpt><trkpt lat="49.168873" lon="20.216611"></trkpt><trkpt lat="49.16872" lon="20.216781"></trkpt><trkpt lat="49.168666" lon="20.21682"></trkpt><trkpt lat="49.168546" lon="20.216866"></trkpt><trkpt lat="49.168501" lon="20.216859"></trkpt><trkpt lat="49.168389" lon="20.216795"></trkpt><trkpt lat="49.168219" lon="20.216902"></trkpt><trkpt lat="49.16814" lon="20.216942"></trkpt><trkpt lat="49.167903" lon="20.216935"></trkpt><trkpt lat="49.167806" lon="20.216954"></trkpt><trkpt lat="49.16774" lon="20.216998"></trkpt><trkpt lat="49.167535" lon="20.217037"></trkpt><trkpt lat="49.167468" lon="20.217057"></trkpt><trkpt lat="49.167412" lon="20.217096"></trkpt><trkpt lat="49.167274" lon="20.217249"></trkpt><trkpt lat="49.167194" lon="20.217317"></trkpt><trkpt lat="49.166803" lon="20.217498"></trkpt><trkpt lat="49.166662" lon="20.217533"></trkpt><trkpt lat="49.166614" lon="20.21755"></trkpt><trkpt lat="49.166465" lon="20.217659"></trkpt><trkpt lat="49.166106" lon="20.217978"></trkpt><trkpt lat="49.166061" lon="20.218061"></trkpt><trkpt lat="49.166037" lon="20.218132"></trkpt><trkpt lat="49.166009" lon="20.218395"></trkpt><trkpt lat="49.16599" lon="20.218486"></trkpt><trkpt lat="49.165943" lon="20.218567"></trkpt><trkpt lat="49.165874" lon="20.218631"></trkpt><trkpt lat="49.165772" lon="20.218697"></trkpt><trkpt lat="49.165708" lon="20.218768"></trkpt><trkpt lat="49.16564" lon="20.218868"></trkpt><trkpt lat="49.165599" lon="20.218897"></trkpt><trkpt lat="49.165457" lon="20.218921"></trkpt><trkpt lat="49.165372" lon="20.218953"></trkpt><trkpt lat="49.165307" lon="20.219006"></trkpt><trkpt lat="49.165068" lon="20.219292"></trkpt><trkpt lat="49.164765" lon="20.219666"></trkpt><trkpt lat="49.164711" lon="20.219705"></trkpt><trkpt lat="49.164413" lon="20.219851"></trkpt><trkpt lat="49.164345" lon="20.219844"></trkpt><trkpt lat="49.164281" lon="20.21982"></trkpt><trkpt lat="49.163934" lon="20.219685"></trkpt><trkpt lat="49.163883" lon="20.219683"></trkpt><trkpt lat="49.163815" lon="20.219694"></trkpt><trkpt lat="49.163712" lon="20.219732"></trkpt><trkpt lat="49.16364" lon="20.219806"></trkpt><trkpt lat="49.163475" lon="20.219919"></trkpt><trkpt lat="49.163215" lon="20.220066"></trkpt><trkpt lat="49.163074" lon="20.220124"></trkpt><trkpt lat="49.163016" lon="20.220158"></trkpt><trkpt lat="49.162986" lon="20.220193"></trkpt><trkpt lat="49.162827" lon="20.220445"></trkpt><trkpt lat="49.162793" lon="20.220484"></trkpt><trkpt lat="49.162695" lon="20.220559"></trkpt><trkpt lat="49.162639" lon="20.220617"></trkpt><trkpt lat="49.162607" lon="20.220673"></trkpt><trkpt lat="49.162579" lon="20.220776"></trkpt><trkpt lat="49.162567" lon="20.22091"></trkpt><trkpt lat="49.162547" lon="20.221011"></trkpt><trkpt lat="49.162502" lon="20.221113"></trkpt><trkpt lat="49.162435" lon="20.221221"></trkpt><trkpt lat="49.16234" lon="20.221333"></trkpt><trkpt lat="49.162293" lon="20.221365"></trkpt><trkpt lat="49.162226" lon="20.221398"></trkpt><trkpt lat="49.162112" lon="20.221435"></trkpt><trkpt lat="49.162038" lon="20.221478"></trkpt><trkpt lat="49.161888" lon="20.221655"></trkpt><trkpt lat="49.161847" lon="20.221725"></trkpt><trkpt lat="49.161781" lon="20.221949"></trkpt><trkpt lat="49.161745" lon="20.222021"></trkpt><trkpt lat="49.1617" lon="20.222074"></trkpt><trkpt lat="49.161632" lon="20.222129"></trkpt><trkpt lat="49.161578" lon="20.222185"></trkpt><trkpt lat="49.161444" lon="20.222414"></trkpt><trkpt lat="49.161263" lon="20.222594"></trkpt><trkpt lat="49.161112" lon="20.222794"></trkpt><trkpt lat="49.160682" lon="20.223223"></trkpt><trkpt lat="49.160268" lon="20.22355"></trkpt><trkpt lat="49.160128" lon="20.223628"></trkpt><trkpt lat="49.15999" lon="20.223693"></trkpt><trkpt lat="49.159707" lon="20.223764"></trkpt><trkpt lat="49.1596" lon="20.223801"></trkpt><trkpt lat="49.159535" lon="20.22384"></trkpt><trkpt lat="49.159365" lon="20.223975"></trkpt><trkpt lat="49.159262" lon="20.224087"></trkpt><trkpt lat="49.159137" lon="20.224248"></trkpt><trkpt lat="49.159066" lon="20.224449"></trkpt><trkpt lat="49.159021" lon="20.224644"></trkpt><trkpt lat="49.158956" lon="20.224754"></trkpt><trkpt lat="49.158849" lon="20.224889"></trkpt><trkpt lat="49.158794" lon="20.225006"></trkpt><trkpt lat="49.158723" lon="20.224987"></trkpt><trkpt lat="49.158683" lon="20.224787"></trkpt><trkpt lat="49.158684" lon="20.224709"></trkpt><trkpt lat="49.158684" lon="20.224653"></trkpt></trkseg></trk>
</gpx>
