<?xml version="1.0" encoding="UTF-8"?>
<gpx version="1.1" creator="Slovakia Travel Guide" xmlns="http://www.topografix.com/GPX/1/1">
<metadata><name>Štrbské Pleso — Popradské pleso</name></metadata>
<trk><name>Red: Štrbské Pleso → Popradské pleso</name><trkseg><trkpt lat="49.118276" lon="20.063582"></trkpt><trkpt lat="49.118234" lon="20.063492"></trkpt><trkpt lat="49.118176" lon="20.063369"></trkpt><trkpt lat="49.118158" lon="20.063334"></trkpt><trkpt lat="49.118134" lon="20.063276"></trkpt><trkpt lat="49.118197" lon="20.063198"></trkpt><trkpt lat="49.118086" lon="20.062983"></trkpt><trkpt lat="49.117885" lon="20.062513"></trkpt><trkpt lat="49.117862" lon="20.062437"></trkpt><trkpt lat="49.117856" lon="20.062382"></trkpt><trkpt lat="49.117858" lon="20.062315"></trkpt><trkpt lat="49.117875" lon="20.06226"></trkpt><trkpt lat="49.117905" lon="20.062226"></trkpt><trkpt lat="49.117952" lon="20.062211"></trkpt><trkpt lat="49.118001" lon="20.062218"></trkpt><trkpt lat="49.118136" lon="20.062265"></trkpt><trkpt lat="49.118207" lon="20.062316"></trkpt><trkpt lat="49.118327" lon="20.062366"></trkpt><trkpt lat="49.118431" lon="20.062416"></trkpt><trkpt lat="49.118479" lon="20.06244"></trkpt><trkpt lat="49.118538" lon="20.06247"></trkpt><trkpt lat="49.118616" lon="20.062504"></trkpt><trkpt lat="49.118739" lon="20.062558"></trkpt><trkpt lat="49.118967" lon="20.062634"></trkpt><trkpt lat="49.119127" lon="20.062691"></trkpt><trkpt lat="49.119392" lon="20.062744"></trkpt><trkpt lat="49.119915" lon="20.062803"></trkpt><trkpt lat="49.120218" lon="20.06275"></trkpt><trkpt lat="49.120267" lon="20.062782"></trkpt><trkpt lat="49.120238" lon="20.062921"></trkpt><trkpt lat="49.120235" lon="20.063031"></trkpt><trkpt lat="49.12026" lon="20.063312"></trkpt><trkpt lat="49.120476" lon="20.063383"></trkpt><trkpt lat="49.120527" lon="20.063295"></trkpt><trkpt lat="49.120567" lon="20.063248"></trkpt><trkpt lat="49.120604" lon="20.063225"></trkpt><trkpt lat="49.12067" lon="20.063206"></trkpt><trkpt lat="49.120849" lon="20.063196"></trkpt><trkpt lat="49.120952" lon="20.063186"></trkpt><trkpt lat="49.121085" lon="20.063205"></trkpt><trkpt lat="49.121229" lon="20.063265"></trkpt><trkpt lat="49.121362" lon="20.063335"></trkpt><trkpt lat="49.121469" lon="20.063394"></trkpt><trkpt lat="49.12161" lon="20.063471"></trkpt><trkpt lat="49.122549" lon="20.063976"></trkpt><trkpt lat="49.122715" lon="20.064065"></trkpt><trkpt lat="49.122776" lon="20.064095"></trkpt><trkpt lat="49.122924" lon="20.064167"></trkpt><trkpt lat="49.123035" lon="20.064189"></trkpt><trkpt lat="49.123085" lon="20.064182"></trkpt><trkpt lat="49.123105" lon="20.064259"></trkpt><trkpt lat="49.123127" lon="20.06436"></trkpt><trkpt lat="49.123433" lon="20.064696"></trkpt><trkpt lat="49.123933" lon="20.065251"></trkpt><trkpt lat="49.12399" lon="20.065327"></trkpt><trkpt lat="49.124041" lon="20.065421"></trkpt><trkpt lat="49.1241" lon="20.06545"></trkpt><trkpt lat="49.12414" lon="20.065454"></trkpt><trkpt lat="49.12422" lon="20.065383"></trkpt><trkpt lat="49.124256" lon="20.06536"></trkpt><trkpt lat="49.12428" lon="20.06537"></trkpt><trkpt lat="49.124488" lon="20.065249"></trkpt><trkpt lat="49.124617" lon="20.065198"></trkpt><trkpt lat="49.124639" lon="20.065198"></trkpt><trkpt lat="49.124694" lon="20.065196"></trkpt><trkpt lat="49.124936" lon="20.065062"></trkpt><trkpt lat="49.124997" lon="20.065018"></trkpt><trkpt lat="49.125048" lon="20.06495"></trkpt><trkpt lat="49.125151" lon="20.064827"></trkpt><trkpt lat="49.125349" lon="20.06475"></trkpt><trkpt lat="49.12555" lon="20.064711"></trkpt><trkpt lat="49.12579" lon="20.064566"></trkpt><trkpt lat="49.125864" lon="20.064574"></trkpt><trkpt lat="49.125939" lon="20.064648"></trkpt><trkpt lat="49.125984" lon="20.064821"></trkpt><trkpt lat="49.12597" lon="20.065071"></trkpt><trkpt lat="49.125943" lon="20.065295"></trkpt><trkpt lat="49.12597" lon="20.065454"></trkpt><trkpt lat="49.12602" lon="20.06555"></trkpt><trkpt lat="49.126171" lon="20.065657"></trkpt><trkpt lat="49.126354" lon="20.065819"></trkpt><trkpt lat="49.127298" lon="20.065622"></trkpt><trkpt lat="49.127839" lon="20.065477"></trkpt><trkpt lat="49.128294" lon="20.065312"></trkpt><trkpt lat="49.128996" lon="20.065125"></trkpt><trkpt lat="49.129399" lon="20.065046"></trkpt><trkpt lat="49.129557" lon="20.06504"></trkpt><trkpt lat="49.129623" lon="20.065046"></trkpt><trkpt lat="49.129722" lon="20.065022"></trkpt><trkpt lat="49.129789" lon="20.065026"></trkpt><trkpt lat="49.130257" lon="20.064814"></trkpt><trkpt lat="49.130321" lon="20.064766"></trkpt><trkpt lat="49.13047" lon="20.064766"></trkpt><trkpt lat="49.13081" lon="20.064667"></trkpt><trkpt lat="49.131008" lon="20.064552"></trkpt><trkpt lat="49.131257" lon="20.064383"></trkpt><trkpt lat="49.131594" lon="20.064256"></trkpt><trkpt lat="49.131835" lon="20.064206"></trkpt><trkpt lat="49.132068" lon="20.064187"></trkpt><trkpt lat="49.132182" lon="20.064152"></trkpt><trkpt lat="49.132335" lon="20.064082"></trkpt><trkpt lat="49.13257" lon="20.064013"></trkpt><trkpt lat="49.132842" lon="20.063954"></trkpt><trkpt lat="49.133473" lon="20.063895"></trkpt><trkpt lat="49.133615" lon="20.063879"></trkpt><trkpt lat="49.133713" lon="20.063889"></trkpt><trkpt lat="49.133955" lon="20.064119"></trkpt><trkpt lat="49.134346" lon="20.064101"></trkpt><trkpt lat="49.134595" lon="20.064335"></trkpt><trkpt lat="49.134734" lon="20.064428"></trkpt><trkpt lat="49.13496" lon="20.064669"></trkpt><trkpt lat="49.135012" lon="20.064754"></trkpt><trkpt lat="49.135063" lon="20.064837"></trkpt><trkpt lat="49.135178" lon="20.065176"></trkpt><trkpt lat="49.135322" lon="20.065403"></trkpt><trkpt lat="49.135813" lon="20.066466"></trkpt><trkpt lat="49.13598" lon="20.066722"></trkpt><trkpt lat="49.13605" lon="20.066789"></trkpt><trkpt lat="49.136238" lon="20.066899"></trkpt><trkpt lat="49.136379" lon="20.067036"></trkpt><trkpt lat="49.136531" lon="20.067247"></trkpt><trkpt lat="49.136603" lon="20.06736"></trkpt><trkpt lat="49.136672" lon="20.067419"></trkpt><trkpt lat="49.137049" lon="20.067663"></trkpt><trkpt lat="49.137295" lon="20.067765"></trkpt><trkpt lat="49.137868" lon="20.067842"></trkpt><trkpt lat="49.138091" lon="20.068022"></trkpt><trkpt lat="49.138633" lon="20.068301"></trkpt><trkpt lat="49.13886" lon="20.068515"></trkpt><trkpt lat="49.138948" lon="20.068575"></trkpt><trkpt lat="49.139162" lon="20.068658"></trkpt><trkpt lat="49.139352" lon="20.068693"></trkpt><trkpt lat="49.139908" lon="20.068823"></trkpt><trkpt lat="49.140151" lon="20.068942"></trkpt><trkpt lat="49.140432" lon="20.069117"></trkpt><trkpt lat="49.140506" lon="20.069217"></trkpt><trkpt lat="49.140581" lon="20.069374"></trkpt><trkpt lat="49.14065" lon="20.069452"></trkpt><trkpt lat="49.140853" lon="20.069563"></trkpt><trkpt lat="49.140955" lon="20.069659"></trkpt><trkpt lat="49.141036" lon="20.069751"></trkpt><trkpt lat="49.141367" lon="20.070203"></trkpt><trkpt lat="49.141427" lon="20.070308"></trkpt><trkpt lat="49.141487" lon="20.070495"></trkpt><trkpt lat="49.14149" lon="20.070707"></trkpt><trkpt lat="49.141566" lon="20.070984"></trkpt><trkpt lat="49.141584" lon="20.071261"></trkpt><trkpt lat="49.141627" lon="20.071416"></trkpt><trkpt lat="49.141693" lon="20.071558"></trkpt><trkpt lat="49.141733" lon="20.071614"></trkpt><trkpt lat="49.141959" lon="20.071705"></trkpt><trkpt lat="49.142239" lon="20.071806"></trkpt><trkpt lat="49.14245" lon="20.071869"></trkpt><trkpt lat="49.142597" lon="20.071887"></trkpt><trkpt lat="49.142748" lon="20.071946"></trkpt><trkpt lat="49.142925" lon="20.072075"></trkpt><trkpt lat="49.143073" lon="20.07215"></trkpt><trkpt lat="49.143459" lon="20.072231"></trkpt><trkpt lat="49.143608" lon="20.072115"></trkpt><trkpt lat="49.143738" lon="20.072083"></trkpt><trkpt lat="49.143855" lon="20.072097"></trkpt><trkpt lat="49.144006" lon="20.072013"></trkpt><trkpt lat="49.144187" lon="20.072"></trkpt><trkpt lat="49.144622" lon="20.072067"></trkpt><trkpt lat="49.144919" lon="20.07216"></trkpt><trkpt lat="49.14517" lon="20.072148"></trkpt><trkpt lat="49.145384" lon="20.072172"></trkpt><trkpt lat="49.14557" lon="20.072274"></trkpt><trkpt lat="49.145687" lon="20.072365"></trkpt><trkpt lat="49.145866" lon="20.07248"></trkpt><trkpt lat="49.146019" lon="20.072534"></trkpt><trkpt lat="49.14609" lon="20.072558"></trkpt><trkpt lat="49.146298" lon="20.072571"></trkpt><trkpt lat="49.14647" lon="20.072535"></trkpt><trkpt lat="49.1466" lon="20.07252"></trkpt><trkpt lat="49.146821" lon="20.072539"></trkpt><trkpt lat="49.146961" lon="20.072638"></trkpt><trkpt lat="49.147089" lon="20.072802"></trkpt><trkpt lat="49.147157" lon="20.072976"></trkpt><trkpt lat="49.147183" lon="20.073203"></trkpt><trkpt lat="49.147139" lon="20.073339"></trkpt><trkpt lat="49.147143" lon="20.073457"></trkpt><trkpt lat="49.147189" lon="20.07355"></trkpt><trkpt lat="49.147241" lon="20.073604"></trkpt><trkpt lat="49.147368" lon="20.073667"></trkpt><trkpt lat="49.147442" lon="20.073741"></trkpt><trkpt lat="49.14771" lon="20.073959"></trkpt><trkpt lat="49.147765" lon="20.074039"></trkpt><trkpt lat="49.147957" lon="20.074193"></trkpt><trkpt lat="49.148121" lon="20.074297"></trkpt><trkpt lat="49.148319" lon="20.074293"></trkpt><trkpt lat="49.148513" lon="20.074372"></trkpt><trkpt lat="49.148573" lon="20.074344"></trkpt><trkpt lat="49.148728" lon="20.074355"></trkpt><trkpt lat="49.148915" lon="20.074406"></trkpt><trkpt lat="49.149012" lon="20.074398"></trkpt><trkpt lat="49.149128" lon="20.074414"></trkpt><trkpt lat="49.149145" lon="20.074425"></trkpt><trkpt lat="49.149275" lon="20.074508"></trkpt><trkpt lat="49.14944" lon="20.074639"></trkpt><trkpt lat="49.149915" lon="20.074972"></trkpt><trkpt lat="49.150212" lon="20.075224"></trkpt><trkpt lat="49.150515" lon="20.075465"></trkpt><trkpt lat="49.150743" lon="20.075669"></trkpt><trkpt lat="49.151084" lon="20.075999"></trkpt><trkpt lat="49.151396" lon="20.07623"></trkpt><trkpt lat="49.151598" lon="20.076368"></trkpt><trkpt lat="49.151711" lon="20.076498"></trkpt><trkpt lat="49.151753" lon="20.076577"></trkpt><trkpt lat="49.151795" lon="20.076631"></trkpt><trkpt lat="49.152435" lon="20.076868"></trkpt><trkpt lat="49.152576" lon="20.076901"></trkpt><trkpt lat="49.153381" lon="20.077259"></trkpt><trkpt lat="49.153636" lon="20.077335"></trkpt><trkpt lat="49.153852" lon="20.077364"></trkpt><trkpt lat="49.154019" lon="20.077443"></trkpt><trkpt lat="49.154095" lon="20.077497"></trkpt><trkpt lat="49.154183" lon="20.077604"></trkpt><trkpt lat="49.15422" lon="20.077634"></trkpt><trkpt lat="49.154293" lon="20.077869"></trkpt><trkpt lat="49.154615" lon="20.078387"></trkpt><trkpt lat="49.154771" lon="20.078738"></trkpt><trkpt lat="49.154852" lon="20.079076"></trkpt><trkpt lat="49.154877" lon="20.079249"></trkpt><trkpt lat="49.154872" lon="20.07944"></trkpt><trkpt lat="49.15486" lon="20.079448"></trkpt><trkpt lat="49.154801" lon="20.079493"></trkpt><trkpt lat="49.154777" lon="20.079517"></trkpt><trkpt lat="49.154836" lon="20.079795"></trkpt><trkpt lat="49.154853" lon="20.079877"></trkpt><trkpt lat="49.15494" lon="20.080179"></trkpt><trkpt lat="49.155017" lon="20.080389"></trkpt><trkpt lat="49.155041" lon="20.080419"></trkpt><trkpt lat="49.155044" lon="20.080467"></trkpt><trkpt lat="49.155204" lon="20.080789"></trkpt><trkpt lat="49.155242" lon="20.080947"></trkpt><trkpt lat="49.155233" lon="20.081011"></trkpt><trkpt lat="49.155185" lon="20.081056"></trkpt><trkpt lat="49.155116" lon="20.08111"></trkpt><trkpt lat="49.155069" lon="20.081126"></trkpt><trkpt lat="49.155027" lon="20.081189"></trkpt><trkpt lat="49.154986" lon="20.081269"></trkpt><trkpt lat="49.15497" lon="20.08135"></trkpt><trkpt lat="49.154984" lon="20.081503"></trkpt><trkpt lat="49.154971" lon="20.081606"></trkpt><trkpt lat="49.154928" lon="20.081805"></trkpt><trkpt lat="49.154881" lon="20.081861"></trkpt><trkpt lat="49.154864" lon="20.081881"></trkpt><trkpt lat="49.154787" lon="20.081948"></trkpt><trkpt lat="49.154718" lon="20.081956"></trkpt><trkpt lat="49.154633" lon="20.0819"></trkpt><trkpt lat="49.154549" lon="20.081892"></trkpt><trkpt lat="49.154501" lon="20.081901"></trkpt><trkpt lat="49.154463" lon="20.081955"></trkpt><trkpt lat="49.154418" lon="20.082042"></trkpt><trkpt lat="49.154365" lon="20.082139"></trkpt><trkpt lat="49.154335" lon="20.08218"></trkpt><trkpt lat="49.154277" lon="20.082165"></trkpt><trkpt lat="49.154225" lon="20.082166"></trkpt><trkpt lat="49.154189" lon="20.082184"></trkpt><trkpt lat="49.154034" lon="20.08211"></trkpt><trkpt lat="49.15387" lon="20.082074"></trkpt><trkpt lat="49.153488" lon="20.081591"></trkpt><trkpt lat="49.153063" lon="20.081284"></trkpt><trkpt lat="49.153" lon="20.081261"></trkpt></trkseg></trk>
<trk><name>Yellow: Popradské pleso → Symbolický cintorín</name><trkseg><trkpt lat="49.153" lon="20.081261"></trkpt><trkpt lat="49.15279" lon="20.081184"></trkpt><trkpt lat="49.152602" lon="20.081239"></trkpt><trkpt lat="49.152155" lon="20.081082"></trkpt><trkpt lat="49.151943" lon="20.080725"></trkpt><trkpt lat="49.151485" lon="20.080315"></trkpt><trkpt lat="49.151294" lon="20.08017"></trkpt><trkpt lat="49.150866" lon="20.079915"></trkpt><trkpt lat="49.150719" lon="20.079859"></trkpt><trkpt lat="49.150384" lon="20.079859"></trkpt><trkpt lat="49.150275" lon="20.079819"></trkpt><trkpt lat="49.150098" lon="20.079588"></trkpt><trkpt lat="49.149907" lon="20.079253"></trkpt><trkpt lat="49.149773" lon="20.079097"></trkpt><trkpt lat="49.149622" lon="20.078977"></trkpt><trkpt lat="49.149495" lon="20.078955"></trkpt><trkpt lat="49.149447" lon="20.079092"></trkpt><trkpt lat="49.149341" lon="20.079148"></trkpt><trkpt lat="49.149331" lon="20.079169"></trkpt><trkpt lat="49.149368" lon="20.079333"></trkpt><trkpt lat="49.149357" lon="20.079373"></trkpt><trkpt lat="49.149186" lon="20.079331"></trkpt><trkpt lat="49.149197" lon="20.079468"></trkpt><trkpt lat="49.149258" lon="20.079722"></trkpt><trkpt lat="49.149253" lon="20.079795"></trkpt><trkpt lat="49.149233" lon="20.079855"></trkpt><trkpt lat="49.149173" lon="20.07989"></trkpt><trkpt lat="49.149084" lon="20.079911"></trkpt><trkpt lat="49.149044" lon="20.079935"></trkpt><trkpt lat="49.149084" lon="20.079911"></trkpt><trkpt lat="49.149173" lon="20.07989"></trkpt><trkpt lat="49.149233" lon="20.079855"></trkpt><trkpt lat="49.149253" lon="20.079795"></trkpt><trkpt lat="49.149258" lon="20.079722"></trkpt><trkpt lat="49.149197" lon="20.079468"></trkpt><trkpt lat="49.149186" lon="20.079331"></trkpt><trkpt lat="49.149357" lon="20.079373"></trkpt><trkpt lat="49.149368" lon="20.079333"></trkpt><trkpt lat="49.149331" lon="20.079169"></trkpt><trkpt lat="49.149341" lon="20.079148"></trkpt><trkpt lat="49.149447" lon="20.079092"></trkpt><trkpt lat="49.149495" lon="20.078955"></trkpt><trkpt lat="49.149622" lon="20.078977"></trkpt><trkpt lat="49.149773" lon="20.079097"></trkpt><trkpt lat="49.149907" lon="20.079253"></trkpt><trkpt lat="49.150098" lon="20.079588"></trkpt><trkpt lat="49.150275" lon="20.079819"></trkpt><trkpt lat="49.150384" lon="20.079859"></trkpt><trkpt lat="49.150719" lon="20.079859"></trkpt><trkpt lat="49.150866" lon="20.079915"></trkpt><trkpt lat="49.151294" lon="20.08017"></trkpt><trkpt lat="49.151485" lon="20.080315"></trkpt><trkpt lat="49.151943" lon="20.080725"></trkpt><trkpt lat="49.152155" lon="20.081082"></trkpt><trkpt lat="49.152602" lon="20.081239"></trkpt><trkpt lat="49.15279" lon="20.081184"></trkpt><trkpt lat="49.153" lon="20.081261"></trkpt></trkseg></trk>
</gpx>
