<?xml version="1.0" encoding="UTF-8"?>
<gpx version="1.1" creator="Slovakia Travel Guide" xmlns="http://www.topografix.com/GPX/1/1">
<metadata><name>Slovak Paradise — Suchá Belá</name></metadata>
<trk><name>Green: Suchá Belá gorge — one way uphill</name><trkseg><trkpt lat="48.963635" lon="20.378493"></trkpt><trkpt lat="48.963518" lon="20.378544"></trkpt><trkpt lat="48.963323" lon="20.379143"></trkpt><trkpt lat="48.963222" lon="20.379478"></trkpt><trkpt lat="48.96302" lon="20.380167"></trkpt><trkpt lat="48.962963" lon="20.380372"></trkpt><trkpt lat="48.962917" lon="20.380575"></trkpt><trkpt lat="48.962895" lon="20.380723"></trkpt><trkpt lat="48.962884" lon="20.380886"></trkpt><trkpt lat="48.962885" lon="20.381042"></trkpt><trkpt lat="48.962895" lon="20.381183"></trkpt><trkpt lat="48.962916" lon="20.381387"></trkpt><trkpt lat="48.962941" lon="20.381591"></trkpt><trkpt lat="48.962974" lon="20.381771"></trkpt><trkpt lat="48.963024" lon="20.381967"></trkpt><trkpt lat="48.963077" lon="20.382153"></trkpt><trkpt lat="48.963217" lon="20.382618"></trkpt><trkpt lat="48.96333" lon="20.38292"></trkpt><trkpt lat="48.963404" lon="20.383108"></trkpt><trkpt lat="48.963566" lon="20.383425"></trkpt><trkpt lat="48.963645" lon="20.383533"></trkpt><trkpt lat="48.963776" lon="20.383703"></trkpt><trkpt lat="48.964028" lon="20.383988"></trkpt><trkpt lat="48.964216" lon="20.384216"></trkpt><trkpt lat="48.964289" lon="20.384326"></trkpt><trkpt lat="48.964367" lon="20.38443"></trkpt><trkpt lat="48.964437" lon="20.384555"></trkpt><trkpt lat="48.964524" lon="20.384759"></trkpt><trkpt lat="48.964658" lon="20.385147"></trkpt><trkpt lat="48.964779" lon="20.385518"></trkpt><trkpt lat="48.964521" lon="20.385275"></trkpt><trkpt lat="48.964441" lon="20.385244"></trkpt><trkpt lat="48.964245" lon="20.385128"></trkpt><trkpt lat="48.963996" lon="20.38496"></trkpt><trkpt lat="48.963865" lon="20.38488"></trkpt><trkpt lat="48.96379" lon="20.384838"></trkpt><trkpt lat="48.963689" lon="20.384795"></trkpt><trkpt lat="48.963622" lon="20.384776"></trkpt><trkpt lat="48.963514" lon="20.384753"></trkpt><trkpt lat="48.963374" lon="20.384726"></trkpt><trkpt lat="48.963249" lon="20.3847"></trkpt><trkpt lat="48.963073" lon="20.384652"></trkpt><trkpt lat="48.962996" lon="20.384624"></trkpt><trkpt lat="48.962922" lon="20.384586"></trkpt><trkpt lat="48.962838" lon="20.384525"></trkpt><trkpt lat="48.962766" lon="20.384451"></trkpt><trkpt lat="48.962715" lon="20.384377"></trkpt><trkpt lat="48.962674" lon="20.384284"></trkpt><trkpt lat="48.962639" lon="20.384192"></trkpt><trkpt lat="48.962608" lon="20.384083"></trkpt><trkpt lat="48.962584" lon="20.383968"></trkpt><trkpt lat="48.962284" lon="20.383542"></trkpt><trkpt lat="48.961671" lon="20.382557"></trkpt><trkpt lat="48.960996" lon="20.381765"></trkpt><trkpt lat="48.960747" lon="20.381668"></trkpt><trkpt lat="48.960319" lon="20.381795"></trkpt><trkpt lat="48.959709" lon="20.381611"></trkpt><trkpt lat="48.959184" lon="20.381585"></trkpt><trkpt lat="48.957807" lon="20.381206"></trkpt><trkpt lat="48.957283" lon="20.380897"></trkpt><trkpt lat="48.957129" lon="20.380706"></trkpt><trkpt lat="48.956878" lon="20.380584"></trkpt><trkpt lat="48.956765" lon="20.38026"></trkpt><trkpt lat="48.956484" lon="20.379803"></trkpt><trkpt lat="48.956124" lon="20.379837"></trkpt><trkpt lat="48.955679" lon="20.37974"></trkpt><trkpt lat="48.955029" lon="20.379648"></trkpt><trkpt lat="48.954412" lon="20.379847"></trkpt><trkpt lat="48.953759" lon="20.379865"></trkpt><trkpt lat="48.953549" lon="20.379739"></trkpt><trkpt lat="48.952856" lon="20.378677"></trkpt><trkpt lat="48.952652" lon="20.378777"></trkpt><trkpt lat="48.952531" lon="20.378798"></trkpt><trkpt lat="48.952431" lon="20.378795"></trkpt><trkpt lat="48.952318" lon="20.378769"></trkpt><trkpt lat="48.952241" lon="20.378739"></trkpt><trkpt lat="48.952145" lon="20.378702"></trkpt><trkpt lat="48.951968" lon="20.378637"></trkpt><trkpt lat="48.951732" lon="20.378512"></trkpt><trkpt lat="48.951609" lon="20.378426"></trkpt><trkpt lat="48.951425" lon="20.378235"></trkpt><trkpt lat="48.951278" lon="20.378095"></trkpt><trkpt lat="48.951143" lon="20.378018"></trkpt><trkpt lat="48.950825" lon="20.377889"></trkpt><trkpt lat="48.95076" lon="20.377854"></trkpt><trkpt lat="48.950644" lon="20.377791"></trkpt><trkpt lat="48.950551" lon="20.377763"></trkpt><trkpt lat="48.950466" lon="20.37775"></trkpt><trkpt lat="48.950173" lon="20.377726"></trkpt><trkpt lat="48.949981" lon="20.377714"></trkpt><trkpt lat="48.949807" lon="20.377712"></trkpt><trkpt lat="48.949658" lon="20.377718"></trkpt><trkpt lat="48.949566" lon="20.377735"></trkpt><trkpt lat="48.949481" lon="20.37778"></trkpt><trkpt lat="48.949318" lon="20.377893"></trkpt><trkpt lat="48.94914" lon="20.378017"></trkpt><trkpt lat="48.949061" lon="20.378057"></trkpt><trkpt lat="48.948951" lon="20.378095"></trkpt><trkpt lat="48.948762" lon="20.378139"></trkpt><trkpt lat="48.948541" lon="20.378213"></trkpt><trkpt lat="48.948263" lon="20.378292"></trkpt><trkpt lat="48.94798" lon="20.378401"></trkpt><trkpt lat="48.947632" lon="20.378501"></trkpt><trkpt lat="48.947516" lon="20.378563"></trkpt><trkpt lat="48.947412" lon="20.378662"></trkpt><trkpt lat="48.947357" lon="20.378791"></trkpt><trkpt lat="48.947306" lon="20.378929"></trkpt><trkpt lat="48.947227" lon="20.379039"></trkpt><trkpt lat="48.947147" lon="20.379097"></trkpt><trkpt lat="48.94706" lon="20.379129"></trkpt><trkpt lat="48.946959" lon="20.379134"></trkpt><trkpt lat="48.946575" lon="20.379092"></trkpt><trkpt lat="48.946169" lon="20.379087"></trkpt><trkpt lat="48.946097" lon="20.379105"></trkpt><trkpt lat="48.946048" lon="20.37914"></trkpt><trkpt lat="48.945769" lon="20.379429"></trkpt><trkpt lat="48.945563" lon="20.379595"></trkpt><trkpt lat="48.945463" lon="20.379688"></trkpt><trkpt lat="48.945333" lon="20.379885"></trkpt><trkpt lat="48.945219" lon="20.380113"></trkpt><trkpt lat="48.945105" lon="20.380272"></trkpt><trkpt lat="48.944978" lon="20.380336"></trkpt><trkpt lat="48.94446" lon="20.380363"></trkpt><trkpt lat="48.944268" lon="20.380411"></trkpt><trkpt lat="48.944176" lon="20.38047"></trkpt><trkpt lat="48.94401" lon="20.380689"></trkpt><trkpt lat="48.943852" lon="20.380932"></trkpt><trkpt lat="48.943783" lon="20.381017"></trkpt><trkpt lat="48.943678" lon="20.3811"></trkpt><trkpt lat="48.943452" lon="20.381229"></trkpt><trkpt lat="48.943359" lon="20.381315"></trkpt><trkpt lat="48.943271" lon="20.381466"></trkpt><trkpt lat="48.943031" lon="20.382069"></trkpt><trkpt lat="48.942851" lon="20.382551"></trkpt><trkpt lat="48.942793" lon="20.382644"></trkpt><trkpt lat="48.94272" lon="20.382692"></trkpt><trkpt lat="48.942619" lon="20.382684"></trkpt><trkpt lat="48.942529" lon="20.38264"></trkpt><trkpt lat="48.942263" lon="20.382391"></trkpt><trkpt lat="48.942129" lon="20.3822"></trkpt><trkpt lat="48.942002" lon="20.381975"></trkpt><trkpt lat="48.941759" lon="20.381409"></trkpt><trkpt lat="48.941629" lon="20.38109"></trkpt><trkpt lat="48.941507" lon="20.380851"></trkpt><trkpt lat="48.9414" lon="20.38058"></trkpt><trkpt lat="48.941301" lon="20.380293"></trkpt><trkpt lat="48.941188" lon="20.379854"></trkpt><trkpt lat="48.941098" lon="20.379466"></trkpt><trkpt lat="48.941025" lon="20.379194"></trkpt><trkpt lat="48.940972" lon="20.379071"></trkpt><trkpt lat="48.94092" lon="20.37901"></trkpt><trkpt lat="48.940846" lon="20.378959"></trkpt><trkpt lat="48.940769" lon="20.378932"></trkpt><trkpt lat="48.940591" lon="20.378935"></trkpt><trkpt lat="48.940378" lon="20.378911"></trkpt><trkpt lat="48.940236" lon="20.378862"></trkpt><trkpt lat="48.940085" lon="20.378835"></trkpt><trkpt lat="48.939974" lon="20.378819"></trkpt><trkpt lat="48.939814" lon="20.378834"></trkpt><trkpt lat="48.939612" lon="20.378906"></trkpt><trkpt lat="48.939264" lon="20.379013"></trkpt><trkpt lat="48.939194" lon="20.379037"></trkpt><trkpt lat="48.939125" lon="20.379078"></trkpt><trkpt lat="48.939065" lon="20.379154"></trkpt><trkpt lat="48.938993" lon="20.379289"></trkpt><trkpt lat="48.938862" lon="20.379667"></trkpt><trkpt lat="48.938765" lon="20.379872"></trkpt><trkpt lat="48.938692" lon="20.379987"></trkpt><trkpt lat="48.93859" lon="20.3801"></trkpt><trkpt lat="48.938518" lon="20.380162"></trkpt><trkpt lat="48.938444" lon="20.380199"></trkpt><trkpt lat="48.937831" lon="20.380422"></trkpt><trkpt lat="48.937575" lon="20.380527"></trkpt><trkpt lat="48.9373" lon="20.380658"></trkpt><trkpt lat="48.936979" lon="20.38083"></trkpt><trkpt lat="48.936808" lon="20.380897"></trkpt><trkpt lat="48.936616" lon="20.380936"></trkpt><trkpt lat="48.9363" lon="20.380965"></trkpt><trkpt lat="48.936036" lon="20.381001"></trkpt><trkpt lat="48.935716" lon="20.381052"></trkpt><trkpt lat="48.934826" lon="20.381091"></trkpt><trkpt lat="48.93473" lon="20.381068"></trkpt><trkpt lat="48.934488" lon="20.381267"></trkpt><trkpt lat="48.934379" lon="20.381391"></trkpt><trkpt lat="48.93432" lon="20.381506"></trkpt><trkpt lat="48.934259" lon="20.381697"></trkpt><trkpt lat="48.934193" lon="20.382163"></trkpt><trkpt lat="48.93413" lon="20.382631"></trkpt><trkpt lat="48.934074" lon="20.382955"></trkpt><trkpt lat="48.934012" lon="20.383249"></trkpt><trkpt lat="48.934155" lon="20.383351"></trkpt></trkseg></trk>
<trk><name>Yellow: Suchá Belá, záver → Pod Vtáčim hrbom</name><trkseg><trkpt lat="48.934155" lon="20.383351"></trkpt><trkpt lat="48.934307" lon="20.383459"></trkpt><trkpt lat="48.934455" lon="20.383542"></trkpt><trkpt lat="48.93455" lon="20.383632"></trkpt><trkpt lat="48.934608" lon="20.383722"></trkpt><trkpt lat="48.93468" lon="20.383895"></trkpt><trkpt lat="48.934734" lon="20.384061"></trkpt><trkpt lat="48.93492" lon="20.384584"></trkpt><trkpt lat="48.935245" lon="20.385293"></trkpt><trkpt lat="48.935474" lon="20.3858"></trkpt><trkpt lat="48.935779" lon="20.386435"></trkpt><trkpt lat="48.936067" lon="20.386835"></trkpt><trkpt lat="48.936149" lon="20.386967"></trkpt><trkpt lat="48.936223" lon="20.387105"></trkpt><trkpt lat="48.936285" lon="20.387244"></trkpt><trkpt lat="48.936324" lon="20.387459"></trkpt><trkpt lat="48.936403" lon="20.387811"></trkpt><trkpt lat="48.936442" lon="20.388111"></trkpt><trkpt lat="48.936494" lon="20.388334"></trkpt><trkpt lat="48.936601" lon="20.388607"></trkpt><trkpt lat="48.936727" lon="20.388973"></trkpt><trkpt lat="48.93693" lon="20.389359"></trkpt><trkpt lat="48.93729" lon="20.389959"></trkpt><trkpt lat="48.937381" lon="20.390217"></trkpt><trkpt lat="48.937564" lon="20.390454"></trkpt><trkpt lat="48.93788" lon="20.390621"></trkpt><trkpt lat="48.938143" lon="20.390675"></trkpt><trkpt lat="48.938502" lon="20.390851"></trkpt><trkpt lat="48.93869" lon="20.391038"></trkpt><trkpt lat="48.938928" lon="20.391229"></trkpt><trkpt lat="48.939135" lon="20.391526"></trkpt><trkpt lat="48.939276" lon="20.391711"></trkpt><trkpt lat="48.939523" lon="20.391995"></trkpt><trkpt lat="48.939867" lon="20.39241"></trkpt><trkpt lat="48.939942" lon="20.392471"></trkpt><trkpt lat="48.940037" lon="20.392532"></trkpt><trkpt lat="48.940098" lon="20.39257"></trkpt><trkpt lat="48.940163" lon="20.392568"></trkpt><trkpt lat="48.940222" lon="20.392559"></trkpt><trkpt lat="48.940348" lon="20.392511"></trkpt><trkpt lat="48.940459" lon="20.392433"></trkpt><trkpt lat="48.940681" lon="20.392197"></trkpt><trkpt lat="48.940939" lon="20.392052"></trkpt><trkpt lat="48.941011" lon="20.392032"></trkpt><trkpt lat="48.941264" lon="20.392014"></trkpt><trkpt lat="48.941337" lon="20.392015"></trkpt><trkpt lat="48.941503" lon="20.392061"></trkpt><trkpt lat="48.941564" lon="20.392083"></trkpt><trkpt lat="48.941702" lon="20.392158"></trkpt><trkpt lat="48.941775" lon="20.39222"></trkpt><trkpt lat="48.941878" lon="20.39235"></trkpt><trkpt lat="48.942125" lon="20.392667"></trkpt><trkpt lat="48.942233" lon="20.392812"></trkpt><trkpt lat="48.942324" lon="20.392909"></trkpt><trkpt lat="48.942401" lon="20.392979"></trkpt><trkpt lat="48.942499" lon="20.39303"></trkpt><trkpt lat="48.942676" lon="20.39311"></trkpt><trkpt lat="48.942768" lon="20.393154"></trkpt><trkpt lat="48.942835" lon="20.393198"></trkpt><trkpt lat="48.942921" lon="20.393299"></trkpt><trkpt lat="48.942996" lon="20.393397"></trkpt><trkpt lat="48.943119" lon="20.393587"></trkpt><trkpt lat="48.943177" lon="20.393669"></trkpt><trkpt lat="48.943231" lon="20.393779"></trkpt><trkpt lat="48.943269" lon="20.393897"></trkpt><trkpt lat="48.943315" lon="20.394071"></trkpt><trkpt lat="48.943387" lon="20.394258"></trkpt><trkpt lat="48.943497" lon="20.394482"></trkpt><trkpt lat="48.943576" lon="20.394658"></trkpt><trkpt lat="48.943623" lon="20.394741"></trkpt><trkpt lat="48.943672" lon="20.394807"></trkpt><trkpt lat="48.943715" lon="20.394851"></trkpt><trkpt lat="48.943787" lon="20.394904"></trkpt><trkpt lat="48.943875" lon="20.394952"></trkpt><trkpt lat="48.943949" lon="20.394985"></trkpt><trkpt lat="48.944026" lon="20.395007"></trkpt><trkpt lat="48.944316" lon="20.395076"></trkpt><trkpt lat="48.944399" lon="20.395086"></trkpt><trkpt lat="48.944476" lon="20.395085"></trkpt><trkpt lat="48.944535" lon="20.395086"></trkpt><trkpt lat="48.944574" lon="20.39508"></trkpt><trkpt lat="48.944575" lon="20.395079"></trkpt></trkseg></trk>
<trk><name>Red: return via Nad Podleskom</name><trkseg><trkpt lat="48.944575" lon="20.395079"></trkpt><trkpt lat="48.944626" lon="20.395054"></trkpt><trkpt lat="48.944707" lon="20.394997"></trkpt><trkpt lat="48.944773" lon="20.394955"></trkpt><trkpt lat="48.944831" lon="20.394931"></trkpt><trkpt lat="48.944897" lon="20.394919"></trkpt><trkpt lat="48.944948" lon="20.39492"></trkpt><trkpt lat="48.945007" lon="20.394929"></trkpt><trkpt lat="48.945085" lon="20.394944"></trkpt><trkpt lat="48.945246" lon="20.394993"></trkpt><trkpt lat="48.945314" lon="20.395018"></trkpt><trkpt lat="48.945397" lon="20.395063"></trkpt><trkpt lat="48.945484" lon="20.395121"></trkpt><trkpt lat="48.945578" lon="20.395186"></trkpt><trkpt lat="48.945818" lon="20.395288"></trkpt><trkpt lat="48.945937" lon="20.395329"></trkpt><trkpt lat="48.946051" lon="20.395351"></trkpt><trkpt lat="48.946066" lon="20.395351"></trkpt><trkpt lat="48.946148" lon="20.395352"></trkpt><trkpt lat="48.946251" lon="20.395339"></trkpt><trkpt lat="48.946316" lon="20.395321"></trkpt><trkpt lat="48.9464" lon="20.395283"></trkpt><trkpt lat="48.946472" lon="20.395245"></trkpt><trkpt lat="48.946529" lon="20.395196"></trkpt><trkpt lat="48.946575" lon="20.395139"></trkpt><trkpt lat="48.946629" lon="20.395062"></trkpt><trkpt lat="48.946686" lon="20.394952"></trkpt><trkpt lat="48.946728" lon="20.394849"></trkpt><trkpt lat="48.946756" lon="20.394761"></trkpt><trkpt lat="48.946772" lon="20.394676"></trkpt><trkpt lat="48.946775" lon="20.394561"></trkpt><trkpt lat="48.946761" lon="20.394418"></trkpt><trkpt lat="48.946766" lon="20.394298"></trkpt><trkpt lat="48.946793" lon="20.394099"></trkpt><trkpt lat="48.94684" lon="20.393799"></trkpt><trkpt lat="48.946852" lon="20.3937"></trkpt><trkpt lat="48.946883" lon="20.393588"></trkpt><trkpt lat="48.946931" lon="20.393488"></trkpt><trkpt lat="48.947017" lon="20.393333"></trkpt><trkpt lat="48.947162" lon="20.393051"></trkpt><trkpt lat="48.947247" lon="20.392856"></trkpt><trkpt lat="48.947284" lon="20.392726"></trkpt><trkpt lat="48.947328" lon="20.392544"></trkpt><trkpt lat="48.947386" lon="20.392264"></trkpt><trkpt lat="48.947409" lon="20.392116"></trkpt><trkpt lat="48.947426" lon="20.391959"></trkpt><trkpt lat="48.947422" lon="20.391775"></trkpt><trkpt lat="48.947426" lon="20.39165"></trkpt><trkpt lat="48.947441" lon="20.391553"></trkpt><trkpt lat="48.947525" lon="20.391234"></trkpt><trkpt lat="48.947662" lon="20.390717"></trkpt><trkpt lat="48.947695" lon="20.390607"></trkpt><trkpt lat="48.947744" lon="20.390497"></trkpt><trkpt lat="48.947818" lon="20.390398"></trkpt><trkpt lat="48.947899" lon="20.390302"></trkpt><trkpt lat="48.94795" lon="20.390244"></trkpt><trkpt lat="48.948069" lon="20.390152"></trkpt><trkpt lat="48.948144" lon="20.390103"></trkpt><trkpt lat="48.948225" lon="20.39006"></trkpt><trkpt lat="48.948314" lon="20.39002"></trkpt><trkpt lat="48.94839" lon="20.390004"></trkpt><trkpt lat="48.94845" lon="20.390004"></trkpt><trkpt lat="48.948525" lon="20.390018"></trkpt><trkpt lat="48.948588" lon="20.390052"></trkpt><trkpt lat="48.948637" lon="20.39009"></trkpt><trkpt lat="48.948673" lon="20.39014"></trkpt><trkpt lat="48.948692" lon="20.390211"></trkpt><trkpt lat="48.948698" lon="20.390293"></trkpt><trkpt lat="48.948701" lon="20.390415"></trkpt><trkpt lat="48.948692" lon="20.390549"></trkpt><trkpt lat="48.948672" lon="20.390754"></trkpt><trkpt lat="48.948648" lon="20.39103"></trkpt><trkpt lat="48.948644" lon="20.391272"></trkpt><trkpt lat="48.948659" lon="20.391445"></trkpt><trkpt lat="48.948704" lon="20.391741"></trkpt><trkpt lat="48.948755" lon="20.392012"></trkpt><trkpt lat="48.948806" lon="20.39218"></trkpt><trkpt lat="48.948892" lon="20.39237"></trkpt><trkpt lat="48.948978" lon="20.392515"></trkpt><trkpt lat="48.949193" lon="20.392771"></trkpt><trkpt lat="48.94944" lon="20.393047"></trkpt><trkpt lat="48.94957" lon="20.393159"></trkpt><trkpt lat="48.949655" lon="20.393213"></trkpt><trkpt lat="48.949757" lon="20.393255"></trkpt><trkpt lat="48.949833" lon="20.393274"></trkpt><trkpt lat="48.950116" lon="20.393047"></trkpt><trkpt lat="48.950198" lon="20.393"></trkpt><trkpt lat="48.950279" lon="20.392974"></trkpt><trkpt lat="48.950339" lon="20.392969"></trkpt><trkpt lat="48.950387" lon="20.392987"></trkpt><trkpt lat="48.950424" lon="20.393018"></trkpt><trkpt lat="48.950456" lon="20.393066"></trkpt><trkpt lat="48.950476" lon="20.393128"></trkpt><trkpt lat="48.950483" lon="20.393196"></trkpt><trkpt lat="48.950483" lon="20.393295"></trkpt><trkpt lat="48.950466" lon="20.393412"></trkpt><trkpt lat="48.950446" lon="20.393491"></trkpt><trkpt lat="48.95041" lon="20.393616"></trkpt><trkpt lat="48.950573" lon="20.393876"></trkpt><trkpt lat="48.950748" lon="20.394275"></trkpt><trkpt lat="48.950975" lon="20.394493"></trkpt><trkpt lat="48.951081" lon="20.394726"></trkpt><trkpt lat="48.951262" lon="20.39465"></trkpt><trkpt lat="48.951445" lon="20.39454"></trkpt><trkpt lat="48.951653" lon="20.394399"></trkpt><trkpt lat="48.951989" lon="20.39417"></trkpt><trkpt lat="48.952118" lon="20.394053"></trkpt><trkpt lat="48.952261" lon="20.393919"></trkpt><trkpt lat="48.952389" lon="20.393837"></trkpt><trkpt lat="48.952527" lon="20.393757"></trkpt><trkpt lat="48.95263" lon="20.393708"></trkpt><trkpt lat="48.952756" lon="20.393649"></trkpt><trkpt lat="48.952875" lon="20.393609"></trkpt><trkpt lat="48.952976" lon="20.393549"></trkpt><trkpt lat="48.953057" lon="20.393475"></trkpt><trkpt lat="48.953143" lon="20.393382"></trkpt><trkpt lat="48.953258" lon="20.393252"></trkpt><trkpt lat="48.953349" lon="20.393129"></trkpt><trkpt lat="48.953391" lon="20.393058"></trkpt><trkpt lat="48.953421" lon="20.39299"></trkpt><trkpt lat="48.95345" lon="20.392898"></trkpt><trkpt lat="48.95349" lon="20.392765"></trkpt><trkpt lat="48.9535" lon="20.392673"></trkpt><trkpt lat="48.953498" lon="20.392505"></trkpt><trkpt lat="48.953469" lon="20.392302"></trkpt><trkpt lat="48.953431" lon="20.392113"></trkpt><trkpt lat="48.953325" lon="20.391822"></trkpt><trkpt lat="48.953243" lon="20.391625"></trkpt><trkpt lat="48.953205" lon="20.39155"></trkpt><trkpt lat="48.953175" lon="20.391508"></trkpt><trkpt lat="48.953145" lon="20.391481"></trkpt><trkpt lat="48.953096" lon="20.39146"></trkpt><trkpt lat="48.952991" lon="20.391427"></trkpt><trkpt lat="48.952916" lon="20.391407"></trkpt><trkpt lat="48.952855" lon="20.391389"></trkpt><trkpt lat="48.952757" lon="20.39138"></trkpt><trkpt lat="48.952646" lon="20.391372"></trkpt><trkpt lat="48.95255" lon="20.391351"></trkpt><trkpt lat="48.952415" lon="20.391301"></trkpt><trkpt lat="48.952334" lon="20.391281"></trkpt><trkpt lat="48.952228" lon="20.391251"></trkpt><trkpt lat="48.952168" lon="20.3912"></trkpt><trkpt lat="48.952145" lon="20.391146"></trkpt><trkpt lat="48.952136" lon="20.391109"></trkpt><trkpt lat="48.952127" lon="20.391047"></trkpt><trkpt lat="48.952152" lon="20.390962"></trkpt><trkpt lat="48.952196" lon="20.390873"></trkpt><trkpt lat="48.952294" lon="20.39077"></trkpt><trkpt lat="48.952354" lon="20.390695"></trkpt><trkpt lat="48.952491" lon="20.390481"></trkpt><trkpt lat="48.952594" lon="20.39033"></trkpt><trkpt lat="48.952684" lon="20.390196"></trkpt><trkpt lat="48.952738" lon="20.390101"></trkpt><trkpt lat="48.952826" lon="20.389927"></trkpt><trkpt lat="48.952899" lon="20.389815"></trkpt><trkpt lat="48.952958" lon="20.389744"></trkpt><trkpt lat="48.95302" lon="20.38969"></trkpt><trkpt lat="48.953089" lon="20.389657"></trkpt><trkpt lat="48.953156" lon="20.389638"></trkpt><trkpt lat="48.953232" lon="20.389619"></trkpt><trkpt lat="48.953305" lon="20.389581"></trkpt><trkpt lat="48.953405" lon="20.389544"></trkpt><trkpt lat="48.953507" lon="20.389524"></trkpt><trkpt lat="48.953584" lon="20.389515"></trkpt><trkpt lat="48.953651" lon="20.38948"></trkpt><trkpt lat="48.953723" lon="20.389426"></trkpt><trkpt lat="48.953775" lon="20.389391"></trkpt><trkpt lat="48.953818" lon="20.389375"></trkpt><trkpt lat="48.953873" lon="20.389379"></trkpt><trkpt lat="48.953945" lon="20.389372"></trkpt><trkpt lat="48.954086" lon="20.389343"></trkpt><trkpt lat="48.954294" lon="20.389316"></trkpt><trkpt lat="48.954343" lon="20.389303"></trkpt><trkpt lat="48.954387" lon="20.38927"></trkpt><trkpt lat="48.954435" lon="20.389257"></trkpt><trkpt lat="48.954531" lon="20.389245"></trkpt><trkpt lat="48.954597" lon="20.389251"></trkpt><trkpt lat="48.954658" lon="20.389264"></trkpt><trkpt lat="48.954737" lon="20.389292"></trkpt><trkpt lat="48.954889" lon="20.389329"></trkpt><trkpt lat="48.954981" lon="20.389351"></trkpt><trkpt lat="48.955065" lon="20.389359"></trkpt><trkpt lat="48.955144" lon="20.389356"></trkpt><trkpt lat="48.955217" lon="20.389344"></trkpt><trkpt lat="48.95535" lon="20.3893"></trkpt><trkpt lat="48.955429" lon="20.389267"></trkpt><trkpt lat="48.955514" lon="20.38921"></trkpt><trkpt lat="48.955556" lon="20.389222"></trkpt><trkpt lat="48.955606" lon="20.389222"></trkpt><trkpt lat="48.955627" lon="20.389209"></trkpt><trkpt lat="48.955682" lon="20.389244"></trkpt><trkpt lat="48.955733" lon="20.389262"></trkpt><trkpt lat="48.955761" lon="20.389273"></trkpt><trkpt lat="48.955821" lon="20.389237"></trkpt><trkpt lat="48.955878" lon="20.38923"></trkpt><trkpt lat="48.955967" lon="20.389183"></trkpt><trkpt lat="48.956016" lon="20.389181"></trkpt><trkpt lat="48.956059" lon="20.389196"></trkpt><trkpt lat="48.956104" lon="20.389238"></trkpt><trkpt lat="48.956153" lon="20.389262"></trkpt><trkpt lat="48.956213" lon="20.389266"></trkpt><trkpt lat="48.95629" lon="20.389266"></trkpt><trkpt lat="48.95634" lon="20.389284"></trkpt><trkpt lat="48.956399" lon="20.389313"></trkpt><trkpt lat="48.956445" lon="20.389336"></trkpt><trkpt lat="48.95647" lon="20.389525"></trkpt><trkpt lat="48.956498" lon="20.389635"></trkpt><trkpt lat="48.956535" lon="20.389711"></trkpt><trkpt lat="48.956583" lon="20.389782"></trkpt><trkpt lat="48.956638" lon="20.389821"></trkpt><trkpt lat="48.95672" lon="20.389844"></trkpt><trkpt lat="48.956759" lon="20.389858"></trkpt><trkpt lat="48.956818" lon="20.38988"></trkpt><trkpt lat="48.956872" lon="20.389884"></trkpt><trkpt lat="48.956917" lon="20.389881"></trkpt><trkpt lat="48.957047" lon="20.389896"></trkpt><trkpt lat="48.957123" lon="20.389894"></trkpt><trkpt lat="48.957183" lon="20.389876"></trkpt><trkpt lat="48.957291" lon="20.38985"></trkpt><trkpt lat="48.957354" lon="20.389836"></trkpt><trkpt lat="48.957458" lon="20.389787"></trkpt><trkpt lat="48.957667" lon="20.389641"></trkpt><trkpt lat="48.957757" lon="20.389504"></trkpt><trkpt lat="48.957827" lon="20.389386"></trkpt><trkpt lat="48.957932" lon="20.389272"></trkpt><trkpt lat="48.958007" lon="20.389175"></trkpt><trkpt lat="48.958032" lon="20.389104"></trkpt><trkpt lat="48.958105" lon="20.389002"></trkpt><trkpt lat="48.958228" lon="20.388895"></trkpt><trkpt lat="48.958257" lon="20.388867"></trkpt><trkpt lat="48.958277" lon="20.388798"></trkpt><trkpt lat="48.958325" lon="20.388737"></trkpt><trkpt lat="48.958389" lon="20.38871"></trkpt><trkpt lat="48.958445" lon="20.388678"></trkpt><trkpt lat="48.958515" lon="20.388655"></trkpt><trkpt lat="48.958568" lon="20.388649"></trkpt><trkpt lat="48.95861" lon="20.38864"></trkpt><trkpt lat="48.958669" lon="20.388627"></trkpt><trkpt lat="48.958695" lon="20.3886"></trkpt><trkpt lat="48.958766" lon="20.38852"></trkpt><trkpt lat="48.959019" lon="20.388491"></trkpt><trkpt lat="48.959239" lon="20.388404"></trkpt><trkpt lat="48.959352" lon="20.388351"></trkpt><trkpt lat="48.95959" lon="20.388337"></trkpt><trkpt lat="48.95968" lon="20.388299"></trkpt><trkpt lat="48.959954" lon="20.388211"></trkpt><trkpt lat="48.960099" lon="20.388131"></trkpt><trkpt lat="48.960254" lon="20.38805"></trkpt><trkpt lat="48.960416" lon="20.387996"></trkpt><trkpt lat="48.960507" lon="20.387975"></trkpt><trkpt lat="48.960647" lon="20.387985"></trkpt><trkpt lat="48.960688" lon="20.387955"></trkpt><trkpt lat="48.960927" lon="20.387961"></trkpt><trkpt lat="48.960978" lon="20.387964"></trkpt><trkpt lat="48.961095" lon="20.387956"></trkpt><trkpt lat="48.961135" lon="20.38794"></trkpt><trkpt lat="48.961183" lon="20.387901"></trkpt><trkpt lat="48.961215" lon="20.387862"></trkpt><trkpt lat="48.961248" lon="20.387811"></trkpt><trkpt lat="48.961286" lon="20.387778"></trkpt><trkpt lat="48.961321" lon="20.387731"></trkpt><trkpt lat="48.961359" lon="20.387625"></trkpt><trkpt lat="48.961401" lon="20.387417"></trkpt><trkpt lat="48.961433" lon="20.387317"></trkpt><trkpt lat="48.961455" lon="20.387264"></trkpt><trkpt lat="48.961493" lon="20.387198"></trkpt><trkpt lat="48.961543" lon="20.38714"></trkpt><trkpt lat="48.961608" lon="20.387081"></trkpt><trkpt lat="48.961635" lon="20.387049"></trkpt><trkpt lat="48.961668" lon="20.387021"></trkpt><trkpt lat="48.961687" lon="20.386981"></trkpt><trkpt lat="48.961709" lon="20.38693"></trkpt><trkpt lat="48.961754" lon="20.386873"></trkpt><trkpt lat="48.961818" lon="20.386801"></trkpt><trkpt lat="48.961877" lon="20.386714"></trkpt><trkpt lat="48.961976" lon="20.386584"></trkpt><trkpt lat="48.962019" lon="20.386543"></trkpt><trkpt lat="48.96213" lon="20.386471"></trkpt><trkpt lat="48.96217" lon="20.386435"></trkpt><trkpt lat="48.962231" lon="20.386338"></trkpt><trkpt lat="48.962357" lon="20.386263"></trkpt><trkpt lat="48.962466" lon="20.386206"></trkpt><trkpt lat="48.962579" lon="20.386171"></trkpt><trkpt lat="48.962708" lon="20.386141"></trkpt><trkpt lat="48.962806" lon="20.386126"></trkpt><trkpt lat="48.962869" lon="20.386115"></trkpt><trkpt lat="48.962927" lon="20.386089"></trkpt><trkpt lat="48.962969" lon="20.386053"></trkpt><trkpt lat="48.963028" lon="20.386038"></trkpt><trkpt lat="48.96309" lon="20.385988"></trkpt><trkpt lat="48.963187" lon="20.385913"></trkpt><trkpt lat="48.963208" lon="20.385877"></trkpt><trkpt lat="48.963335" lon="20.385938"></trkpt><trkpt lat="48.963535" lon="20.386022"></trkpt><trkpt lat="48.963732" lon="20.386076"></trkpt><trkpt lat="48.963813" lon="20.386093"></trkpt><trkpt lat="48.963877" lon="20.386104"></trkpt><trkpt lat="48.963997" lon="20.386111"></trkpt><trkpt lat="48.96408" lon="20.386116"></trkpt><trkpt lat="48.964218" lon="20.386115"></trkpt><trkpt lat="48.964315" lon="20.38611"></trkpt><trkpt lat="48.964374" lon="20.3861"></trkpt><trkpt lat="48.964718" lon="20.386024"></trkpt><trkpt lat="48.964769" lon="20.386012"></trkpt><trkpt lat="48.964795" lon="20.386002"></trkpt><trkpt lat="48.964841" lon="20.385716"></trkpt><trkpt lat="48.964859" lon="20.385683"></trkpt><trkpt lat="48.964779" lon="20.385518"></trkpt><trkpt lat="48.964658" lon="20.385147"></trkpt><trkpt lat="48.964524" lon="20.384759"></trkpt><trkpt lat="48.964437" lon="20.384555"></trkpt><trkpt lat="48.964367" lon="20.38443"></trkpt><trkpt lat="48.964289" lon="20.384326"></trkpt><trkpt lat="48.964216" lon="20.384216"></trkpt><trkpt lat="48.964028" lon="20.383988"></trkpt><trkpt lat="48.963776" lon="20.383703"></trkpt><trkpt lat="48.963645" lon="20.383533"></trkpt><trkpt lat="48.963566" lon="20.383425"></trkpt><trkpt lat="48.963404" lon="20.383108"></trkpt><trkpt lat="48.96333" lon="20.38292"></trkpt><trkpt lat="48.963217" lon="20.382618"></trkpt><trkpt lat="48.963077" lon="20.382153"></trkpt><trkpt lat="48.963024" lon="20.381967"></trkpt><trkpt lat="48.962974" lon="20.381771"></trkpt><trkpt lat="48.962941" lon="20.381591"></trkpt><trkpt lat="48.962916" lon="20.381387"></trkpt><trkpt lat="48.962895" lon="20.381183"></trkpt><trkpt lat="48.962885" lon="20.381042"></trkpt><trkpt lat="48.962884" lon="20.380886"></trkpt><trkpt lat="48.962895" lon="20.380723"></trkpt><trkpt lat="48.962917" lon="20.380575"></trkpt><trkpt lat="48.962963" lon="20.380372"></trkpt><trkpt lat="48.96302" lon="20.380167"></trkpt><trkpt lat="48.963222" lon="20.379478"></trkpt><trkpt lat="48.963323" lon="20.379143"></trkpt><trkpt lat="48.963518" lon="20.378544"></trkpt><trkpt lat="48.963635" lon="20.378493"></trkpt></trkseg></trk>
</gpx>
