<?xml version="1.0" encoding="UTF-8"?>
<gpx version="1.1" creator="Slovakia Travel Guide" xmlns="http://www.topografix.com/GPX/1/1">
<metadata><name>Bachledka + Belianska Cave</name></metadata>
<trk><name>Bachledka gondola</name><trkseg><trkpt lat="49.27282" lon="20.3072699"></trkpt><trkpt lat="49.2855468" lon="20.3110337"></trkpt></trkseg></trk>
<trk><name>Treetop Walk — visitor boardwalk</name><trkseg><trkpt lat="49.2855468" lon="20.3110337"></trkpt><trkpt lat="49.2859" lon="20.31205"></trkpt><trkpt lat="49.28535" lon="20.31255"></trkpt><trkpt lat="49.2849" lon="20.3119"></trkpt><trkpt lat="49.2855468" lon="20.3110337"></trkpt></trkseg></trk>
<trk><name>Nature trail to Belianska Cave — no colour marking</name><trkseg><trkpt lat="49.229498" lon="20.317662"></trkpt><trkpt lat="49.229416" lon="20.317659"></trkpt><trkpt lat="49.229382" lon="20.317583"></trkpt><trkpt lat="49.229459" lon="20.317479"></trkpt><trkpt lat="49.229548" lon="20.317346"></trkpt><trkpt lat="49.229479" lon="20.317216"></trkpt><trkpt lat="49.229458" lon="20.317174"></trkpt><trkpt lat="49.229351" lon="20.316959"></trkpt><trkpt lat="49.229183" lon="20.316783"></trkpt><trkpt lat="49.229136" lon="20.316667"></trkpt><trkpt lat="49.22882" lon="20.316773"></trkpt><trkpt lat="49.228703" lon="20.316738"></trkpt><trkpt lat="49.228597" lon="20.316675"></trkpt><trkpt lat="49.228412" lon="20.316693"></trkpt><trkpt lat="49.228232" lon="20.316723"></trkpt><trkpt lat="49.228056" lon="20.31677"></trkpt><trkpt lat="49.22791" lon="20.316794"></trkpt><trkpt lat="49.227642" lon="20.316847"></trkpt><trkpt lat="49.227456" lon="20.316948"></trkpt><trkpt lat="49.227082" lon="20.317062"></trkpt><trkpt lat="49.226961" lon="20.317089"></trkpt><trkpt lat="49.227011" lon="20.316927"></trkpt><trkpt lat="49.227136" lon="20.316701"></trkpt><trkpt lat="49.227234" lon="20.316502"></trkpt><trkpt lat="49.227512" lon="20.316162"></trkpt><trkpt lat="49.227817" lon="20.31584"></trkpt><trkpt lat="49.227957" lon="20.315682"></trkpt><trkpt lat="49.228271" lon="20.315365"></trkpt><trkpt lat="49.228413" lon="20.315199"></trkpt><trkpt lat="49.22858" lon="20.315067"></trkpt><trkpt lat="49.228887" lon="20.314761"></trkpt><trkpt lat="49.229237" lon="20.314138"></trkpt><trkpt lat="49.22937" lon="20.314022"></trkpt><trkpt lat="49.229325" lon="20.313897"></trkpt><trkpt lat="49.229075" lon="20.3139"></trkpt><trkpt lat="49.228844" lon="20.313968"></trkpt><trkpt lat="49.228898" lon="20.313665"></trkpt><trkpt lat="49.22885" lon="20.313386"></trkpt><trkpt lat="49.228791" lon="20.312766"></trkpt><trkpt lat="49.228781" lon="20.312276"></trkpt><trkpt lat="49.228818" lon="20.311678"></trkpt><trkpt lat="49.228823" lon="20.311612"></trkpt><trkpt lat="49.228812" lon="20.311554"></trkpt><trkpt lat="49.228817" lon="20.311545"></trkpt></trkseg></trk>
</gpx>
